     3.04           N: GNSS NAV DATA    M: MIXED            RINEX VERSION / TYPE
ssrcrin-15.6.1x                         20250101 144500 UTC PGM / RUN BY / DATE 
    18                                                      LEAP SECONDS        
                                                            END OF HEADER       
C38 2025 01 01 14 00 00 2.004036214203E-04 2.006395050103E-12 0.000000000000E+00
     1.000000000000E+00-4.211406250000E+02 1.195406936354E-09 2.884433733614E+00
    -1.350231468678E-05 2.302560489625E-03-1.497846096754E-05 6.492948257446E+03
     3.096000000000E+05-3.771856427193E-08-9.553432544526E-01-1.224689185619E-07
     1.010907408100E+00 7.161718750000E+02-2.435064696047E+00-2.658325015621E-09
    -2.935836575092E-10 0.000000000000E+00 9.910000000000E+02 0.000000000000E+00
     2.000000000000E+00 0.000000000000E+00 3.000000000000E-09 3.000000000000E-09
     3.122880000000E+05 1.000000000000E+00
S23 2025 01 01 14 45 36 0.000000000000E+00 0.000000000000E+00 3.123490000000E+05
     3.866796400000E+04 0.000000000000E+00 0.000000000000E+00 6.300000000000E+01
     1.681330800000E+04 0.000000000000E+00 0.000000000000E+00 3.276700000000E+04
     0.000000000000E+00 0.000000000000E+00 0.000000000000E+00 1.530000000000E+02
S21 2025 01 01 14 44 16 0.000000000000E+00 0.000000000000E+00 3.123500000000E+05
     4.200468400000E+04 0.000000000000E+00 0.000000000000E+00 6.300000000000E+01
    -3.674932960000E+03 0.000000000000E+00 0.000000000000E+00 3.276700000000E+04
     0.000000000000E+00 0.000000000000E+00 0.000000000000E+00 1.720000000000E+02
S36 2025 01 01 14 44 32 0.000000000000E+00 0.000000000000E+00 3.123570000000E+05
     4.200368800000E+04 0.000000000000E+00 0.000000000000E+00 6.300000000000E+01
     3.674846960000E+03 0.000000000000E+00 0.000000000000E+00 3.276700000000E+04
     0.000000000000E+00 0.000000000000E+00 0.000000000000E+00 2.440000000000E+02
S36 2025 01 01 14 46 56 0.000000000000E+00 0.000000000000E+00 3.124290000000E+05
     4.200368800000E+04 0.000000000000E+00 0.000000000000E+00 6.300000000000E+01
     3.674846960000E+03 0.000000000000E+00 0.000000000000E+00 3.276700000000E+04
     0.000000000000E+00 0.000000000000E+00 0.000000000000E+00 2.450000000000E+02
S21 2025 01 01 14 46 56 0.000000000000E+00 0.000000000000E+00 3.124310000000E+05
     4.200468400000E+04 0.000000000000E+00 0.000000000000E+00 6.300000000000E+01
    -3.674932960000E+03 0.000000000000E+00 0.000000000000E+00 3.276700000000E+04
     0.000000000000E+00 0.000000000000E+00 0.000000000000E+00 1.730000000000E+02
S23 2025 01 01 14 47 44 0.000000000000E+00 0.000000000000E+00 3.124720000000E+05
     3.866796400000E+04 0.000000000000E+00 0.000000000000E+00 6.300000000000E+01
     1.681330800000E+04 0.000000000000E+00 0.000000000000E+00 3.276700000000E+04
     0.000000000000E+00 0.000000000000E+00 0.000000000000E+00 1.540000000000E+02
E30 2025 01 01 14 30 00-1.090335834306E-03-3.996092345915E-11 0.000000000000E+00
     1.100000000000E+01-1.956250000000E+01 3.477644857867E-09 9.439366261779E-01
    -9.685754776001E-07 5.765612004325E-04 6.614252924919E-06 5.440612236023E+03
     3.114000000000E+05-2.048909664154E-08 2.416171142701E+00 3.352761268616E-08
     9.620354887768E-01 1.989687500000E+02 9.725629954497E-01-5.501300579822E-09
    -6.214544575012E-10 5.170000000000E+02 2.347000000000E+03
     3.120000000000E+00 0.000000000000E+00-9.313225746155E-10-2.328306436539E-10
     3.125750000000E+05
S36 2025 01 01 14 49 36 0.000000000000E+00 0.000000000000E+00 3.125770000000E+05
     4.200368800000E+04 0.000000000000E+00 0.000000000000E+00 6.300000000000E+01
     3.674846960000E+03 0.000000000000E+00 0.000000000000E+00 3.276700000000E+04
     0.000000000000E+00 0.000000000000E+00 0.000000000000E+00 2.460000000000E+02
S21 2025 01 01 14 49 52 0.000000000000E+00 0.000000000000E+00 3.125930000000E+05
     4.200468400000E+04 0.000000000000E+00 0.000000000000E+00 6.300000000000E+01
    -3.674932960000E+03 0.000000000000E+00 0.000000000000E+00 3.276700000000E+04
     0.000000000000E+00 0.000000000000E+00 0.000000000000E+00 1.740000000000E+02
S23 2025 01 01 14 49 52 0.000000000000E+00 0.000000000000E+00 3.125970000000E+05
     3.866796400000E+04 0.000000000000E+00 0.000000000000E+00 6.300000000000E+01
     1.681330800000E+04 0.000000000000E+00 0.000000000000E+00 3.276700000000E+04
     0.000000000000E+00 0.000000000000E+00 0.000000000000E+00 1.550000000000E+02
E30 2025 01 01 14 30 00-1.090336707421E-03-3.996092345915E-11 0.000000000000E+00
     1.100000000000E+01-1.956250000000E+01 3.477644857867E-09 9.439366261779E-01
    -9.685754776001E-07 5.765612004325E-04 6.614252924919E-06 5.440612236023E+03
     3.114000000000E+05-2.048909664154E-08 2.416171142701E+00 3.352761268616E-08
     9.620354887768E-01 1.989687500000E+02 9.725629954497E-01-5.501300579822E-09
    -6.214544575012E-10 2.580000000000E+02 2.347000000000E+03
     3.120000000000E+00 0.000000000000E+00-9.313225746155E-10 0.000000000000E+00
     3.126400000000E+05
E30 2025 01 01 14 40 00-1.090359757654E-03-3.996092345915E-11 0.000000000000E+00
     1.200000000000E+01-2.006250000000E+01 3.477287700133E-09 1.018196071199E+00
    -9.983777999878E-07 5.765552632511E-04 6.595626473427E-06 5.440612380981E+03
     3.120000000000E+05-2.048909664154E-08 2.416167837969E+00 3.166496753693E-08
     9.620351171956E-01 1.992500000000E+02 9.726892262620E-01-5.500943422088E-09
    -6.214544575012E-10 5.170000000000E+02 2.347000000000E+03
     3.120000000000E+00 0.000000000000E+00-9.313225746155E-10-2.328306436539E-10
     3.126650000000E+05
E18 2025 01 01 14 40 00 9.497372666374E-04 4.283151611162E-11 0.000000000000E+00
     1.200000000000E+01 1.862500000000E+01 6.790282842536E-09-6.036565749365E-01
     3.445893526077E-07 1.621159929782E-01 6.448477506638E-06 5.289322713852E+03
     3.120000000000E+05 1.275911927223E-06-2.841522212143E+00-2.050772309303E-06
     8.635073080654E-01 2.010312500000E+02 2.772855709210E+00-1.042364847251E-08
     1.367914121971E-10 5.170000000000E+02 2.347000000000E+03
     3.120000000000E+00 1.300000000000E+02-3.259629011154E-09-3.259629011154E-09
     3.126650000000E+05
E15 2025 01 01 14 40 00-1.484805834480E-04-2.287947609148E-12 0.000000000000E+00
     1.200000000000E+01 1.755000000000E+02 2.560820954186E-09 1.097230852412E+00
     8.204951882362E-06 4.396145232022E-04 4.377216100693E-07 5.440607192993E+03
     3.120000000000E+05 1.117587089539E-07-1.775983240191E+00 3.352761268616E-08
     9.996384477309E-01 3.497812500000E+02-1.182267238953E+00-5.640949253893E-09
     3.400141629547E-10 5.170000000000E+02 2.347000000000E+03
     3.120000000000E+00 0.000000000000E+00 2.561137080193E-09 3.725290298462E-09
     3.126650000000E+05
E19 2025 01 01 14 40 00 1.170746167190E-03 5.609024356090E-11 0.000000000000E+00
     1.200000000000E+01-1.866875000000E+02 2.571178528478E-09-2.343723142825E+00
    -8.577480912209E-06 1.475962344557E-04 1.177377998829E-05 5.440637451172E+03
     3.120000000000E+05 1.303851604462E-08 3.191090123998E-01 1.862645149231E-08
     9.691168929571E-01 8.937500000000E+01-2.128177362101E+00-5.182358723185E-09
     3.353711124101E-10 5.170000000000E+02 2.347000000000E+03
     3.120000000000E+00 0.000000000000E+00-6.752088665962E-09-6.053596735001E-09
     3.126650000000E+05
E27 2025 01 01 14 40 00-5.449380842037E-04-9.919176591211E-12 0.000000000000E+00
     1.200000000000E+01-1.634375000000E+01 3.530504202528E-09 6.592383245623E-01
    -6.686896085739E-07 3.207260742784E-04 6.411224603653E-06 5.440602510452E+03
     3.120000000000E+05 4.656612873077E-08 2.413549284827E+00 6.146728992462E-08
     9.642052215777E-01 2.035937500000E+02 5.532462889972E-01-5.544516665660E-09
    -5.985963625126E-10 5.170000000000E+02 2.347000000000E+03
     3.120000000000E+00 0.000000000000E+00-4.656612873077E-10 4.656612873077E-10
     3.126650000000E+05
S36 2025 01 01 14 52 00 0.000000000000E+00 0.000000000000E+00 3.127210000000E+05
     4.200368800000E+04 0.000000000000E+00 0.000000000000E+00 6.300000000000E+01
     3.674846960000E+03 0.000000000000E+00 0.000000000000E+00 3.276700000000E+04
     0.000000000000E+00 0.000000000000E+00 0.000000000000E+00 2.470000000000E+02
S23 2025 01 01 14 52 00 0.000000000000E+00 0.000000000000E+00 3.127230000000E+05
     3.866796400000E+04 0.000000000000E+00 0.000000000000E+00 6.300000000000E+01
     1.681330800000E+04 0.000000000000E+00 0.000000000000E+00 3.276700000000E+04
     0.000000000000E+00 0.000000000000E+00 0.000000000000E+00 1.560000000000E+02
E18 2025 01 01 14 40 00 9.497370338067E-04 4.283151611162E-11 0.000000000000E+00
     1.200000000000E+01 1.862500000000E+01 6.790282842536E-09-6.036565749365E-01
     3.445893526077E-07 1.621159929782E-01 6.448477506638E-06 5.289322713852E+03
     3.120000000000E+05 1.275911927223E-06-2.841522212143E+00-2.050772309303E-06
     8.635073080654E-01 2.010312500000E+02 2.772855709210E+00-1.042364847251E-08
     1.367914121971E-10 2.580000000000E+02 2.347000000000E+03
     3.120000000000E+00 1.600000000000E+01-3.259629011154E-09 0.000000000000E+00
     3.127400000000E+05
E30 2025 01 01 14 40 00-1.090360630769E-03-3.996092345915E-11 0.000000000000E+00
     1.200000000000E+01-2.006250000000E+01 3.477287700133E-09 1.018196071199E+00
    -9.983777999878E-07 5.765552632511E-04 6.595626473427E-06 5.440612380981E+03
     3.120000000000E+05-2.048909664154E-08 2.416167837969E+00 3.166496753693E-08
     9.620351171956E-01 1.992500000000E+02 9.726892262620E-01-5.500943422088E-09
    -6.214544575012E-10 2.580000000000E+02 2.347000000000E+03
     3.120000000000E+00 0.000000000000E+00-9.313225746155E-10 0.000000000000E+00
     3.127400000000E+05
